{
    "links": {
        "self": "http://www.neowsapp.com/rest/v1/neo/3472376?api_key=iIulBulltgU6a56xZRHN4H3l9WmuAYTsLGpBGhQ2"
    },
    "id": "3472376",
    "neo_reference_id": "3472376",
    "name": "(2009 UZ19)",
    "designation": "2009 UZ19",
    "nasa_jpl_url": "http://ssd.jpl.nasa.gov/sbdb.cgi?sstr=3472376",
    "absolute_magnitude_h": 26.2,
    "estimated_diameter": {
        "kilometers": {
            "estimated_diameter_min": 0.0152951935,
            "estimated_diameter_max": 0.0342010925
        },
        "meters": {
            "estimated_diameter_min": 15.2951935344,
            "estimated_diameter_max": 34.201092472
        },
        "miles": {
            "estimated_diameter_min": 0.0095039897,
            "estimated_diameter_max": 0.021251567
        },
        "feet": {
            "estimated_diameter_min": 50.1810827555,
            "estimated_diameter_max": 112.2083122258
        }
    },
    "is_potentially_hazardous_asteroid": false,
    "close_approach_data": [
        {
            "close_approach_date": "2007-09-05",
            "close_approach_date_full": "2007-Sep-05 00:51",
            "epoch_date_close_approach": 1188953460000,
            "relative_velocity": {
                "kilometers_per_second": "18.0841843809",
                "kilometers_per_hour": "65103.0637710632",
                "miles_per_hour": "40452.5120415254"
            },
            "miss_distance": {
                "astronomical": "0.4343526623",
                "lunar": "168.9631856347",
                "kilometers": "64978233.108909301",
                "miles": "40375601.8123423138"
            },
            "orbiting_body": "Earth"
        },
        {
            "close_approach_date": "2009-10-25",
            "close_approach_date_full": "2009-Oct-25 21:47",
            "epoch_date_close_approach": 1256507220000,
            "relative_velocity": {
                "kilometers_per_second": "5.7113935696",
                "kilometers_per_hour": "20561.0168505245",
                "miles_per_hour": "12775.8162758162"
            },
            "miss_distance": {
                "astronomical": "0.0184335306",
                "lunar": "7.1706434034",
                "kilometers": "2757616.914339822",
                "miles": "1713503.6943486636"
            },
            "orbiting_body": "Earth"
        },
        {
            "close_approach_date": "2010-04-02",
            "close_approach_date_full": "2010-Apr-02 10:58",
            "epoch_date_close_approach": 1270205880000,
            "relative_velocity": {
                "kilometers_per_second": "9.1167405382",
                "kilometers_per_hour": "32820.2659375078",
                "miles_per_hour": "20393.236909892"
            },
            "miss_distance": {
                "astronomical": "0.0853301292",
                "lunar": "33.1934202588",
                "kilometers": "12765205.575144804",
                "miles": "7931930.9358701352"
            },
            "orbiting_body": "Mars"
        },
        {
            "close_approach_date": "2011-12-20",
            "close_approach_date_full": "2011-Dec-20 05:36",
            "epoch_date_close_approach": 1324359360000,
            "relative_velocity": {
                "kilometers_per_second": "16.5119958625",
                "kilometers_per_hour": "59443.185104869",
                "miles_per_hour": "36935.6835447448"
            },
            "miss_distance": {
                "astronomical": "0.3818813368",
                "lunar": "148.5518400152",
                "kilometers": "57128634.578032616",
                "miles": "35498087.4586014608"
            },
            "orbiting_body": "Earth"
        }
    ],
    "orbital_data": {
        "orbit_id": "10",
        "orbit_determination_date": "2017-04-06 08:59:24",
        "first_observation_date": "2009-10-25",
        "last_observation_date": "2009-11-01",
        "data_arc_in_days": 7,
        "observations_used": 24,
        "orbit_uncertainty": "8",
        "minimum_orbit_intersection": ".0165797",
        "jupiter_tisserand_invariant": "4.227",
        "epoch_osculation": "2455131.5",
        "eccentricity": ".3801016714960854",
        "semi_major_axis": "1.627890838745495",
        "inclination": "5.263769049532265",
        "ascending_node_longitude": "35.18655581046206",
        "orbital_period": "758.6410620300315",
        "perihelion_distance": "1.009126809925168",
        "perihelion_argument": "4.714396210901754",
        "aphelion_distance": "2.246654867565822",
        "perihelion_time": "2455136.627923489858",
        "mean_anomaly": "357.5666325634826",
        "mean_motion": ".4745327112095457",
        "equinox": "J2000",
        "orbit_class": {
            "orbit_class_type": "APO",
            "orbit_class_description": "Near-Earth asteroid orbits which cross the Earth’s orbit similar to that of 1862 Apollo",
            "orbit_class_range": "a (semi-major axis) > 1.0 AU; q (perihelion) < 1.017 AU"
        }
    },
    "is_sentry_object": false
}